#dP2023  6 28  0  0  0.00000000      96 __u+U ITR00 FIT  IAC
## 2268 259200.00000000   900.00000000 60123 0.0000000000000
+  118   C06C07C08C09C10C11C12C13C14C16C19C20C21C22C23C24C25
+        C26C27C28C29C30C32C33C34C35C36C37C39C40C41C42C43C44
+        C45C46E02E03E04E05E07E08E09E10E11E12E13E14E15E18E19
+        E21E24E25E26E27E30E31E33E34E36G01G02G03G04G05G06G07
+        G08G09G10G11G12G13G14G15G16G17G18G19G20G21G22G23G24
+        G25G26G27G28G29G30G31G32J02J03J04R01R02R03R04R05R07
+        R08R09R11R12R13R14R15R16R17R18R19R20R21R22R24R25  0
++         0  0  0  0  0  0  0  0  0  0  0  0  0  0  0  0  0
++         0  0  0  0  0  0  0  0  0  0  0  0  0  0  0  0  0
++         0  0  0  0  0  0  0  0  0  0  0  0  0  0  0  0  0
++         0  0  0  0  0  0  0  0  0  0  0  0  0  0  0  0  0
++         0  0  0  0  0  0  0  0  0  0  0  0  0  0  0  0  0
++         0  0  0  0  0  0  0  0  0  0  0  0  0  0  0  0  0
++         0  0  0  0  0  0  0  0  0  0  0  0  0  0  0  0  0
%c M  cc GPS ccc cccc cccc cccc cccc ccccc ccccc ccccc ccccc
%c cc cc ccc ccc cccc cccc cccc cccc ccccc ccccc ccccc ccccc
%f  0.0000000  0.000000000  0.00000000000  0.000000000000000
%f  0.0000000  0.000000000  0.00000000000  0.000000000000000
%i    0    0    0    0      0      0      0      0         0
%i    0    0    0    0      0      0      0      0         0
/* INFORMATION & ANALYSIS CENTER (IAC)      ULTRA-RAPID DATA
/* S/V CLOCKS ARE ALIGNED TO GNSS TIME                      
/* G:C1WC2W R:C1PC2P E:C1XC5X C:C2IC6I J:C1CC2S             
/* PCV:IGS20_2247 OL/AL:FES2004  NONE     YN ORB:CoN CLK:CoN
*  2023 06 28  3 45  0.00000000
PC06  -7565.359519  23480.723658 -34147.362275   -170.159592
PC07 -15741.672725  35948.397803  15226.138760   -239.093844
PC08  -1198.428100  39029.918788  16140.586187 999999.999999
PC09   3397.453033  26414.130533 -32125.945372    482.200382
PC10  -9480.979158  35651.339303  20229.329586    -98.505988
PC11  -7639.550717  14110.883360  22887.911171    697.275658
PC12 -24349.716160   4982.435932  12706.795220    745.657933
PC13   3170.263853  40951.665978  10252.285435    304.938444
PC14 -11859.310273  24133.838957  -7323.295272    477.844189
PC16  -8272.967017  22570.537745 -34404.898251     26.942644
PC19   4079.205587 -22900.047930  15461.700964   -930.111335
PC20  16916.866439 -22218.516113   -220.626642    473.773076
PC21 -20566.819451   7922.134945  17112.486322   -928.080585
PC22 -11757.631780 -10450.031169  23047.903906   -420.961084
PC23  15887.920102  21168.313776   8856.320331   -966.666623
PC24  -9730.579418  15732.941811 -20904.449593    111.851176
PC25   5703.268368  26202.259460  -7765.499400    156.487788
PC26 -17855.821531  -2258.856268 -21329.644235   -140.968309
PC27  27453.363748    167.083434  -5005.006828    161.594651
PC28  23099.542670  10958.404075  11189.768312    120.220092
PC29  -4213.029609 -16121.077181 -22395.224631    139.924966
PC30  17161.996979 -11536.019639 -18742.188306     -1.629916
PC32  20505.469135  -8052.854773 -17127.384000   -544.196254
PC33  -3997.913308  22940.537372 -15358.593258   -902.801846
PC34 -15938.296711  12148.248201  19410.862662    202.764396
PC35 -23164.499436 -10421.210927 -11612.798116    599.403410
PC36  -4493.918470 -26209.803614   8482.452355   -359.022721
PC37  18036.448686   3880.726464  20961.214082   -788.257836
PC39 -14410.466301  20447.449783 -33916.898059     -3.533912
PC40      0.000000      0.000000      0.000000 999999.999999
PC41  11329.154057  11015.425793 -22948.930101   -912.579292
PC42 -17581.451224  21588.266018   1672.696945   -632.536545
PC43   3165.136718  16238.224092  22456.573477     28.208965
PC44 -27503.317783    720.088136   4740.952029    151.726664
PC45 -15996.272481 -20862.907065  -9324.592697   -115.776738
PC46   8701.989002 -16907.853835  20416.914891    -64.782194
PE02  -3259.408100 -27213.448422 -11164.564200     46.593670
PE03  -5760.475265 -16002.736483  24227.125298    -30.666825
PE04  23504.652480   4131.615127 -17504.299871   -154.521194
PE05  15633.223833 -18668.946835  16841.355944     -5.497974
PE07 -27777.251397  10186.309822    644.247981    -55.922105
PE08 -23228.979319  -4283.459425  17833.750498   -105.862196
PE09  27806.465502 -10146.191318   -787.413272    -65.470775
PE10  24656.897446   8002.610064 -14308.793523   -544.457039
PE11  20397.274989  -1333.758307 -21422.566766   2342.206644
PE12  24698.224366  15301.022992  -5629.089750   -596.918068
PE13 -20796.852723    618.416891  21051.349963    -19.312622
PE14  29866.458133  -7334.383195   1294.550373    266.595540
PE15 -24648.951814 -15524.583648   5264.688572    -32.835635
PE18 -24086.777061  -1545.322171  -9158.004691    232.677844
PE19   2772.081693  16866.825555 -24154.996247  -2200.084307
PE21  -8992.463258  27433.641252  -6528.887957   -537.539629
PE24  16944.315635 -10957.374408  21640.201756   -179.242120
PE25   9203.638649 -27283.783611   6867.796454   -607.459003
PE26  -4200.179043  16764.951941  24025.981931    146.961768
PE27 -16765.333917  11777.575630 -21359.988880    -85.580211
PE30 -14409.611425 -11249.443872 -23284.773859   -291.079062
PE31  14587.298532  10648.877761  23461.084623 999999.999999
PE33  13918.124415  22364.015853  13489.897131   -442.616047
PE34 -14063.205212 -22344.160637 -13388.685149    -53.156435
PE36   4819.407538 -16194.192665 -24311.184625    -77.796153
PG01 -21740.805918 -14199.834469   6051.915416    175.798854
PG02 -21709.897704 -15437.051001    569.020958   -581.596719
PG03 -13348.646385  -7376.454689  21620.786095   -254.277868
PG04 -23308.514321  -2058.046909  12686.859767     80.358369
PG05   6343.255650  21918.645726 -13676.613404   -132.792886
PG06  -4187.314268  15135.255676  21461.752188    582.359417
PG07 -19869.100739   -827.751581 -17370.621463    140.447033
PG08 -14802.339815  -9497.436995 -20089.376531   -129.481691
PG09 -25457.088455   6614.355521   3775.624939   -125.432766
PG10  11015.184573 -21720.071775 -10032.471048    -42.954217
PG11   9782.562424  21342.229674  12472.020431   -253.195351
PG12  11661.248028  11597.510322  20595.401942   -393.999490
PG13   6222.671860  14049.179527 -21862.546136    539.888761
PG14 -13424.070880  19165.613071 -12399.978836    104.804894
PG15  16373.071462   8110.817863 -19823.144883     52.914296
PG16  -1139.009671 -23997.819600 -11110.344312   -486.887686
PG17 -19277.504398  14016.572882  12263.054989    719.645693
PG18  17771.696405  -2015.178495 -19691.270878   -324.692521
PG19 -12884.493561  15065.141505  17297.961514    336.490312
PG20   2134.313669  26300.948077  -3778.797829    425.634959
PG21 -20803.261133 -17039.184240  -2258.620351    152.715388
PG22   9014.536132 -16231.678518  19386.923682    504.616292
PG23  14851.495399 -11056.933807 -18976.716462     37.508340
PG24  22070.015025  15137.530099    864.889794   -239.729069
PG25  15606.930515  -2512.027790  20995.808338    452.654048
PG26   4189.668223 -25995.406409   1362.996941    237.988687
PG27  -2529.049324 -15120.257911 -21911.743010      7.809357
PG28   5830.013958 -14533.980227  21432.925635     83.612040
PG29  25871.129301  -3032.947680   5398.853151   -604.098043
PG30 -13219.533519   9082.202313 -21077.632121   -508.120977
PG31  -4828.056359 -20025.171868  16349.527752   -219.028819
PG32  16473.727976 -15894.777727  13482.539491   -509.734630
PJ02 -23578.810451  30649.781129 -12051.478889     -0.877873
PJ03 -26537.727031  23538.731557  27969.552771      7.706159
PJ04 -31992.850524  27422.826347   8012.190657     95.961914
PR01  18152.368016 -17924.049072    580.135318     60.299892
PR02   7124.224477 -17326.066756  17324.624092    -22.650841
PR03  -8278.142247  -7173.092810  23084.619618     80.504066
PR04 -18616.533728   6707.760634  16132.360373    192.909078
PR05 -19108.918467  16910.205090    403.035366    114.884615
PR07   8837.139331   6580.850707 -22962.213315     58.968802
PR08  18673.307671  -6957.317013 -15846.630387    -71.439342
PR09   3528.710970  24665.852676  -5237.781678    128.200547
PR11  11930.008792   5123.967207  21966.482282    -90.567388
PR12   6262.848773 -14970.313919  19706.228427     28.549013
PR13  -2302.118754 -24359.019297   7206.840888    -36.530739
PR14 -10584.849488 -19990.854944 -11795.550786     24.869624
PR15 -11844.914012  -3859.604747 -22236.331251     88.253214
PR16  -6158.746125  14695.965699 -19892.156892     16.093892
PR17 -19890.114462 -11614.610544 -10914.340617     -5.060666
PR18 -24306.969668  -5391.234878   5666.270873     88.818146
PR19 -17383.846887   2420.133246  18499.079021   -237.864356
PR20   2836.682066  11686.979278  22489.399289    -95.555679
PR21  20672.056743  11405.632548   9686.074915    -18.575573
PR22  24005.697120   5593.328902  -6523.791737     86.138161
PR24  -3785.346158 -12153.194081 -22092.320665    -14.014922
PR25  19267.188087  12673.183284  10925.537093     57.915736
EOF
